STARLINK-30828          
1 58671U 23211E   26068.09896431 -.00000571  00000+0 -11230-4 0  9993
2 58671  43.0035  88.6664 0000661 262.8442  97.2335 15.27575909122377
COSMOS 2576             
1 59773U 24092A   26068.82603826  .00015211  00000+0  56283-3 0  9991
2 59773  97.4253 186.0053 0005946 159.7731 200.3745 15.27760963101271
